H1 CPF 01  gfz 2022 07 08 00  6891 terrasarx 
H2 0702601  6201 31698    2022 07 08 00 59 42 2022 07 13 00 00 42   120 1 1  0 0 0
H9
10 0 59771  75582.000000  0    3592340.521  -4275100.535   4025117.585
10 0 59771  75702.000000  0    3076094.361  -3954929.215   4718169.589
10 0 59771  75822.000000  0    2512391.018  -3556198.623   5328192.273
10 0 59771  75942.000000  0    1912417.070  -3085166.274   5844484.555
10 0 59771  76062.000000  0    1287863.127  -2549547.638   6258003.001
10 0 59771  76182.000000  0     650693.271  -1958384.708   6561513.921
10 0 59771  76302.000000  0      12914.291  -1321889.936   6749713.602
10 0 59771  76422.000000  0    -613650.235   -651267.615   6819315.587
10 0 59771  76542.000000  0   -1217578.011     41484.574   6769104.192
10 0 59771  76662.000000  0   -1788055.465    743789.826   6599954.358
10 0 59771  76782.000000  0   -2315070.806   1442719.806   6314817.337
10 0 59771  76902.000000  0   -2789590.224   2125231.660   5918672.469
10 0 59771  77022.000000  0   -3203714.237   2778411.333   5418446.058
10 0 59771  77142.000000  0   -3550812.650   3389719.732   4822896.793
10 0 59771  77262.000000  0   -3825635.106   3947236.385   4142468.157
10 0 59771  77382.000000  0   -4024394.482   4439896.870   3389109.847
10 0 59771  77502.000000  0   -4144821.267   4857718.567   2576069.745
10 0 59771  77622.000000  0   -4186186.826   5192008.307   1717658.910
10 0 59771  77742.000000  0   -4149295.028   5435546.856    828995.832
10 0 59771  77862.000000  0   -4036443.571   5582746.377    -74265.534
10 0 59771  77982.000000  0   -3851354.681   5629777.248   -976220.446
10 0 59771  78102.000000  0   -3599075.335   5574658.312  -1861004.212
10 0 59771  78222.000000  0   -3285850.530   5417308.235  -2713080.117
10 0 59771  78342.000000  0   -2918973.161   5159559.424  -3517517.863
10 0 59771  78462.000000  0   -2506616.447   4805132.142  -4260257.741
10 0 59771  78582.000000  0   -2057652.129   4359571.906  -4928354.386
10 0 59771  78702.000000  0   -1581459.864   3830153.443  -5510195.496
10 0 59771  78822.000000  0   -1087732.585   3225754.244  -5995695.803
10 0 59771  78942.000000  0    -586280.494   2556698.076  -6376462.619
10 0 59771  79062.000000  0     -86838.351   1834573.379  -6645929.001
10 0 59771  79182.000000  0     401119.121   1072031.627  -6799455.964
10 0 59771  79302.000000  0     868552.299    282567.807  -6834404.501
10 0 59771  79422.000000  0    1307020.539   -519714.252  -6750176.139
10 0 59771  79542.000000  0    1708830.474  -1320348.583  -6548220.530
10 0 59771  79662.000000  0    2067167.626  -2104760.708  -6232012.895
10 0 59771  79782.000000  0    2376210.839  -2858526.328  -5807001.250
10 0 59771  79902.000000  0    2631227.275  -3567633.398  -5280524.025
10 0 59771  80022.000000  0    2828647.079  -4218744.085  -4661693.629
10 0 59771  80142.000000  0    2966114.074  -4799446.829  -3961247.846
10 0 59771  80262.000000  0    3042513.042  -5298497.096  -3191374.691
10 0 59771  80382.000000  0    3057972.941  -5706044.226  -2365508.554
10 0 59771  80502.000000  0    3013844.893  -6013835.074  -1498099.197
10 0 59771  80622.000000  0    2912655.381  -6215390.487   -604358.838
10 0 59771  80742.000000  0    2758033.843  -6306149.298    300009.581
10 0 59771  80862.000000  0    2554616.825  -6283573.691   1199094.942
10 0 59771  80982.000000  0    2307931.860  -6147216.401   2077066.315
10 0 59771  81102.000000  0    2024262.502  -5898743.896   2918462.121
10 0 59771  81222.000000  0    1710498.912  -5541915.838   3708469.651
10 0 59771  81342.000000  0    1373977.674  -5082523.914   4433190.727
10 0 59771  81462.000000  0    1022315.809  -4528290.948   5079888.637
10 0 59771  81582.000000  0     663242.320  -3888733.383   5637213.265
10 0 59771  81702.000000  0     304430.505  -3174987.362   6095398.165
10 0 59771  81822.000000  0     -46663.430  -2399605.906   6446425.199
10 0 59771  81942.000000  0    -382952.753  -1576333.131   6684157.780
10 0 59771  82062.000000  0    -697860.934   -719858.451   6804442.693
10 0 59771  82182.000000  0    -985448.763    154447.019   6805179.237
10 0 59771  82302.000000  0   -1240525.640   1030806.741   6686353.598
10 0 59771  82422.000000  0   -1458742.815   1893322.827   6450038.729
10 0 59771  82542.000000  0   -1636667.679   2726263.705   6100360.649
10 0 59771  82662.000000  0   -1771838.182   3514351.583   5643430.674
10 0 59771  82782.000000  0   -1862795.865   4243044.619   5087244.371
10 0 59771  82902.000000  0   -1909097.803   4898810.432   4441548.698
10 0 59771  83022.000000  0   -1911306.658   5469384.941   3717675.953
10 0 59771  83142.000000  0   -1870958.802   5944010.619   2928347.757
10 0 59771  83262.000000  0   -1790511.893   6313648.142   2087451.418
10 0 59771  83382.000000  0   -1673271.738   6571157.617   1209792.806
10 0 59771  83502.000000  0   -1523299.687   6711443.456    310830.046
10 0 59771  83622.000000  0   -1345304.025   6731559.476   -593605.777
10 0 59771  83742.000000  0   -1144517.747   6630772.600  -1487599.051
10 0 59771  83862.000000  0    -926564.574   6410578.421  -2355441.251
10 0 59771  83982.000000  0    -697319.117   6074669.707  -3181913.406
10 0 59771  84102.000000  0    -462764.265   5628863.719  -3952555.044
10 0 59771  84222.000000  0    -228848.919   5080990.210  -4653917.188
10 0 59771  84342.000000  0      -1349.591   4440741.620  -5273793.538
10 0 59771  84462.000000  0     214261.392   3719490.818  -5801426.346
10 0 59771  84582.000000  0     412937.855   2930079.421  -6227684.155
10 0 59771  84702.000000  0     590168.805   2086582.520  -6545208.316
10 0 59771  84822.000000  0     742073.443   1204056.185  -6748528.451
10 0 59771  84942.000000  0     865480.510    298270.544  -6834147.397
10 0 59771  85062.000000  0     957990.612   -614567.581  -6800594.887
10 0 59771  85182.000000  0    1018020.696  -1518098.776  -6648448.846
10 0 59771  85302.000000  0    1044830.365  -2396095.778  -6380325.190
10 0 59771  85422.000000  0    1038530.454  -3232747.238  -6000839.452
10 0 59771  85542.000000  0    1000072.438  -4012940.144  -5516537.269
10 0 59771  85662.000000  0     931219.019  -4722532.764  -4935790.734
10 0 59771  85782.000000  0     834497.379  -5348613.495  -4268665.216
10 0 59771  85902.000000  0     713134.247  -5879743.353  -3526755.874
10 0 59771  86022.000000  0     570974.361  -6306175.041  -2722994.132
10 0 59771  86142.000000  0     412384.197  -6620043.847  -1871428.009
10 0 59771  86262.000000  0     242142.664  -6815526.130   -986977.874
10 0 59771  86382.000000  0      65320.908  -6888958.662    -85171.976
10 0 59772    102.000000  0    -112845.648  -6838915.885    818131.561
10 0 59772    222.000000  0    -287089.673  -6666243.691   1707030.879
10 0 59772    342.000000  0    -452245.558  -6374047.768   2565869.767
10 0 59772    462.000000  0    -603380.595  -5967635.271   3379523.398
10 0 59772    582.000000  0    -735919.626  -5454409.948   4133671.777
10 0 59772    702.000000  0    -845761.485  -4843728.699   4815054.647
10 0 59772    822.000000  0    -929383.415  -4146721.382   5411705.737
10 0 59772    942.000000  0    -983931.020  -3376078.638   5913162.093
10 0 59772   1062.000000  0   -1007292.372  -2545810.404   6310643.982
10 0 59772   1182.000000  0    -998153.813  -1670984.148   6597200.708
10 0 59772   1302.000000  0    -956037.471   -767449.013   6767825.933
10 0 59772   1422.000000  0    -881320.755    148453.125   6819540.771
10 0 59772   1542.000000  0    -775236.178   1060183.338   6751442.520
10 0 59772   1662.000000  0    -639850.654   1951303.879   6564719.672
10 0 59772   1782.000000  0    -478025.474   2805774.072   6262632.317
10 0 59772   1902.000000  0    -293357.848   3608239.217   5850458.892
10 0 59772   2022.000000  0     -90105.252   4344309.028   5335409.080
10 0 59772   2142.000000  0     126906.923   5000819.810   4726503.864
10 0 59772   2262.000000  0     352392.892   5566078.241   4034423.333
10 0 59772   2382.000000  0     580726.169   6030076.092   3271321.712
10 0 59772   2502.000000  0     806069.376   6384679.207   2450620.709
10 0 59772   2622.000000  0    1022513.600   6623783.562   1586767.804
10 0 59772   2742.000000  0    1224219.864   6743425.876    694976.487
10 0 59772   2862.000000  0    1405561.573   6741853.514   -209049.175
10 0 59772   2982.000000  0    1561263.726   6619549.656  -1109399.311
10 0 59772   3102.000000  0    1686534.645   6379213.753  -1990246.134
10 0 59772   3222.000000  0    1777187.742   6025698.688  -2836129.216
10 0 59772   3342.000000  0    1829750.131   5565905.523  -3632232.476
10 0 59772   3462.000000  0    1841555.504   5008638.303  -4364646.585
10 0 59772   3582.000000  0    1810819.032   4364423.077  -5020610.423
10 0 59772   3702.000000  0    1736692.586   3645297.947  -5588727.226
10 0 59772   3822.000000  0    1619300.211   2864579.802  -6059154.146
10 0 59772   3942.000000  0    1459752.188   2036611.208  -6423762.166
10 0 59772   4062.000000  0    1260138.832   1176495.129  -6676264.340
10 0 59772   4182.000000  0    1023504.641    299821.498  -6812314.523
10 0 59772   4302.000000  0     753801.911   -577611.461  -6829574.248
10 0 59772   4422.000000  0     455825.210  -1440076.181  -6727747.313
10 0 59772   4542.000000  0     135128.317  -2272189.541  -6508583.034
10 0 59772   4662.000000  0    -202075.728  -3059179.945  -6175851.254
10 0 59772   4782.000000  0    -549031.478  -3787146.881  -5735285.021
10 0 59772   4902.000000  0    -898571.216  -4443305.027  -5194491.061
10 0 59772   5022.000000  0   -1243257.615  -5016211.766  -4562830.471
10 0 59772   5142.000000  0   -1575537.108  -5495973.661  -3851267.832
10 0 59772   5262.000000  0   -1887900.561  -5874426.748  -3072190.093
10 0 59772   5382.000000  0   -2173047.703  -6145286.467  -2239197.831
10 0 59772   5502.000000  0   -2424051.950  -6304264.140  -1366871.434
10 0 59772   5622.000000  0   -2634521.523  -6349146.226   -470514.989
99
